[
    {
        "Altitude(m)": 622205.8907068179,
        "Argument of Periapsis(deg)": 0.0,
        "Eccentricity": 0.0,
        "Inclination(deg)": 60.0,
        "Latitude(deg)": -52.16249949136748,
        "Longitude(deg)": -32.29948399934119,
        "Mean Anomaly(deg)": -114.54549999999999,
        "RAAN(deg)": 200.0,
        "Satellite Name": "Test1 895",
        "Satellite Number": 895,
        "Semi-Major Axis(m)": 6980739.136638005,
        "Time(s)": 0
    },
    {
        "Altitude(m)": 622344.7967036463,
        "Argument of Periapsis(deg)": 0.00010418945913296404,
        "Eccentricity": 0.0,
        "Inclination(deg)": 60.0,
        "Latitude(deg)": -52.520077782024366,
        "Longitude(deg)": -31.51826893257035,
        "Mean Anomaly(deg)": -113.92539385453814,
        "RAAN(deg)": 199.99957995086027,
        "Satellite Name": "Test1 895",
        "Satellite Number": 895,
        "Semi-Major Axis(m)": 6980739.136638005,
        "Time(s)": 10
    }
]